{
  "type": "FeatureCollection",
  "features": [
    {
      "type": "Feature",
      "properties": {
        "norad_id": 66563,
        "name": "STARLINK-35437",
        "group": "last-30-days",
        "lat": -16.43046771518644,
        "lon": -37.464062665823015,
        "alt_km": 416.39502437721876,
        "timestamp": "2025-12-12T05:47:27.525738+00:00",
        "meta_object_name": "STARLINK-35437",
        "meta_object_id": "2025-268G",
        "meta_epoch": "2025-12-11T20:00:01.999872",
        "meta_mean_motion": 15.505232,
        "meta_eccentricity": 0.00015264,
        "meta_inclination": 43,
        "meta_ra_of_asc_node": 126.4734,
        "meta_arg_of_pericenter": 271.8831,
        "meta_mean_anomaly": 172.7739,
        "meta_ephemeris_type": 0,
        "meta_classification_type": "U",
        "meta_norad_cat_id": 66563,
        "meta_element_set_no": 999,
        "meta_rev_at_epoch": 452,
        "meta_bstar": 0.00059191123,
        "meta_mean_motion_dot": 0.00034467,
        "meta_mean_motion_ddot": 0,
        "tle_line1": "1 66563U 25268G   25345.83335648  .00034467  00000+0  59191-3 0  9999",
        "tle_line2": "2 66563  43.0000 126.4734 0001526 271.8831 172.7739 15.50523200  4526"
      },
      "geometry": {
        "type": "Point",
        "coordinates": [
          -37.464062665823015,
          -16.43046771518644
        ]
      }
    },
    {
      "type": "Feature",
      "properties": {
        "norad_id": 66564,
        "name": "STARLINK-35358",
        "group": "last-30-days",
        "lat": -17.665665009568887,
        "lon": -35.93309938708672,
        "alt_km": 416.4573504743403,
        "timestamp": "2025-12-12T05:47:27.525751+00:00",
        "meta_object_name": "STARLINK-35358",
        "meta_object_id": "2025-268H",
        "meta_epoch": "2025-12-11T20:00:01.999872",
        "meta_mean_motion": 15.50534052,
        "meta_eccentricity": 0.00014987,
        "meta_inclination": 43,
        "meta_ra_of_asc_node": 126.4685,
        "meta_arg_of_pericenter": 269.5355,
        "meta_mean_anomaly": 177.0357,
        "meta_ephemeris_type": 0,
        "meta_classification_type": "U",
        "meta_norad_cat_id": 66564,
        "meta_element_set_no": 999,
        "meta_rev_at_epoch": 447,
        "meta_bstar": 0.00027723191,
        "meta_mean_motion_dot": 0.00015929,
        "meta_mean_motion_ddot": 0,
        "tle_line1": "1 66564U 25268H   25345.83335648  .00015929  00000+0  27723-3 0  9998",
        "tle_line2": "2 66564  43.0000 126.4685 0001498 269.5355 177.0357 15.50534052  4470"
      },
      "geometry": {
        "type": "Point",
        "coordinates": [
          -35.93309938708672,
          -17.665665009568887
        ]
      }
    },
    {
      "type": "Feature",
      "properties": {
        "norad_id": 66565,
        "name": "STARLINK-35893",
        "group": "last-30-days",
        "lat": -18.886843499025026,
        "lon": -34.383797721749936,
        "alt_km": 416.54116987670477,
        "timestamp": "2025-12-12T05:47:27.525761+00:00",
        "meta_object_name": "STARLINK-35893",
        "meta_object_id": "2025-268J",
        "meta_epoch": "2025-12-11T20:00:01.999872",
        "meta_mean_motion": 15.50528944,
        "meta_eccentricity": 0.00015823,
        "meta_inclination": 43,
        "meta_ra_of_asc_node": 126.4633,
        "meta_arg_of_pericenter": 271.3394,
        "meta_mean_anomaly": 177.1529,
        "meta_ephemeris_type": 0,
        "meta_classification_type": "U",
        "meta_norad_cat_id": 66565,
        "meta_element_set_no": 999,
        "meta_rev_at_epoch": 452,
        "meta_bstar": 0.00039659658,
        "meta_mean_motion_dot": 0.00022952,
        "meta_mean_motion_ddot": 0,
        "tle_line1": "1 66565U 25268J   25345.83335648  .00022952  00000+0  39660-3 0  9996",
        "tle_line2": "2 66565  43.0000 126.4633 0001582 271.3394 177.1529 15.50528944  4523"
      },
      "geometry": {
        "type": "Point",
        "coordinates": [
          -34.383797721749936,
          -18.886843499025026
        ]
      }
    },
    {
      "type": "Feature",
      "properties": {
        "norad_id": 66566,
        "name": "STARLINK-35871",
        "group": "last-30-days",
        "lat": -20.07247137242226,
        "lon": -32.840728529243684,
        "alt_km": 416.8406906663449,
        "timestamp": "2025-12-12T05:47:27.525772+00:00",
        "meta_object_name": "STARLINK-35871",
        "meta_object_id": "2025-268K",
        "meta_epoch": "2025-12-11T20:00:01.999872",
        "meta_mean_motion": 15.50471812,
        "meta_eccentricity": 0.0001607,
        "meta_inclination": 43.0002,
        "meta_ra_of_asc_node": 126.459,
        "meta_arg_of_pericenter": 292.283,
        "meta_mean_anomaly": 158.0968,
        "meta_ephemeris_type": 0,
        "meta_classification_type": "U",
        "meta_norad_cat_id": 66566,
        "meta_element_set_no": 999,
        "meta_rev_at_epoch": 452,
        "meta_bstar": 0.0026589485,
        "meta_mean_motion_dot": 0.00158235,
        "meta_mean_motion_ddot": 0,
        "tle_line1": "1 66566U 25268K   25345.83335648  .00158235  00000+0  26589-2 0  9996",
        "tle_line2": "2 66566  43.0002 126.4590 0001607 292.2830 158.0968 15.50471812  4529"
      },
      "geometry": {
        "type": "Point",
        "coordinates": [
          -32.840728529243684,
          -20.07247137242226
        ]
      }
    },
    {
      "type": "Feature",
      "properties": {
        "norad_id": 66567,
        "name": "STARLINK-35825",
        "group": "last-30-days",
        "lat": -21.293696544441904,
        "lon": -31.207791592928334,
        "alt_km": 416.8243775861165,
        "timestamp": "2025-12-12T05:47:27.525783+00:00",
        "meta_object_name": "STARLINK-35825",
        "meta_object_id": "2025-268L",
        "meta_epoch": "2025-12-11T20:00:01.999872",
        "meta_mean_motion": 15.50545504,
        "meta_eccentricity": 0.00014035,
        "meta_inclination": 43.0001,
        "meta_ra_of_asc_node": 126.4539,
        "meta_arg_of_pericenter": 274.7675,
        "meta_mean_anomaly": 177.5615,
        "meta_ephemeris_type": 0,
        "meta_classification_type": "U",
        "meta_norad_cat_id": 66567,
        "meta_element_set_no": 999,
        "meta_rev_at_epoch": 452,
        "meta_bstar": -0.00019960343,
        "meta_mean_motion_dot": -0.00012019,
        "meta_mean_motion_ddot": 0,
        "tle_line1": "1 66567U 25268L   25345.83335648 -.00012019  00000+0 -19960-3 0  9994",
        "tle_line2": "2 66567  43.0001 126.4539 0001403 274.7675 177.5615 15.50545504  4523"
      },
      "geometry": {
        "type": "Point",
        "coordinates": [
          -31.207791592928334,
          -21.293696544441904
        ]
      }
    },
    {
      "type": "Feature",
      "properties": {
        "norad_id": 66568,
        "name": "STARLINK-35803",
        "group": "last-30-days",
        "lat": -22.465223002762983,
        "lon": -29.59496598354817,
        "alt_km": 416.94126454045454,
        "timestamp": "2025-12-12T05:47:27.525794+00:00",
        "meta_object_name": "STARLINK-35803",
        "meta_object_id": "2025-268M",
        "meta_epoch": "2025-12-11T20:00:01.999872",
        "meta_mean_motion": 15.50524674,
        "meta_eccentricity": 0.00017838,
        "meta_inclination": 43.0001,
        "meta_ra_of_asc_node": 126.4486,
        "meta_arg_of_pericenter": 285.08,
        "meta_mean_anomaly": 169.1651,
        "meta_ephemeris_type": 0,
        "meta_classification_type": "U",
        "meta_norad_cat_id": 66568,
        "meta_element_set_no": 999,
        "meta_rev_at_epoch": 452,
        "meta_bstar": 0.00052589583,
        "meta_mean_motion_dot": 0.00030571,
        "meta_mean_motion_ddot": 0,
        "tle_line1": "1 66568U 25268M   25345.83335648  .00030571  00000+0  52590-3 0  9992",
        "tle_line2": "2 66568  43.0001 126.4486 0001783 285.0800 169.1651 15.50524674  4523"
      },
      "geometry": {
        "type": "Point",
        "coordinates": [
          -29.59496598354817,
          -22.465223002762983
        ]
      }
    },
    {
      "type": "Feature",
      "properties": {
        "norad_id": 66569,
        "name": "STARLINK-35835",
        "group": "last-30-days",
        "lat": -23.62794027421008,
        "lon": -27.942949897405697,
        "alt_km": 416.8052300698628,
        "timestamp": "2025-12-12T05:47:27.525803+00:00",
        "meta_object_name": "STARLINK-35835",
        "meta_object_id": "2025-268N",
        "meta_epoch": "2025-12-11T20:00:01.999872",
        "meta_mean_motion": 15.50527545,
        "meta_eccentricity": 0.00017639,
        "meta_inclination": 43.0001,
        "meta_ra_of_asc_node": 126.4441,
        "meta_arg_of_pericenter": 274.6667,
        "meta_mean_anomaly": 181.4944,
        "meta_ephemeris_type": 0,
        "meta_classification_type": "U",
        "meta_norad_cat_id": 66569,
        "meta_element_set_no": 999,
        "meta_rev_at_epoch": 452,
        "meta_bstar": 0.00042873363,
        "meta_mean_motion_dot": 0.00024844,
        "meta_mean_motion_ddot": 0,
        "tle_line1": "1 66569U 25268N   25345.83335648  .00024844  00000+0  42873-3 0  9992",
        "tle_line2": "2 66569  43.0001 126.4441 0001763 274.6667 181.4944 15.50527545  4520"
      },
      "geometry": {
        "type": "Point",
        "coordinates": [
          -27.942949897405697,
          -23.62794027421008
        ]
      }
    }
  ]
}